CCSDS_OMM_VERS = 2.0
CREATION_DATE  = 
ORIGINATOR     = 

OBJECT_NAME    = STARLINK-36779
OBJECT_ID      = 2026-034V
CENTER_NAME    = EARTH
REF_FRAME      = TEME
TIME_SYSTEM    = UTC
MEAN_ELEMENT_THEORY = SGP/SGP4

EPOCH          = 2026-03-18T06:02:53.239776
MEAN_MOTION    = 15.80930795
ECCENTRICITY   = .0001328
INCLINATION    = 53.1588
RA_OF_ASC_NODE = 168.2761
ARG_OF_PERICENTER = 72.8495
MEAN_ANOMALY   = 287.2673

EPHEMERIS_TYPE = 0
CLASSIFICATION_TYPE = U
NORAD_CAT_ID   = 67869
ELEMENT_SET_NO = 999
REV_AT_EPOCH   = 529
BSTAR          = .11728E-2
MEAN_MOTION_DOT = .237893E-2
MEAN_MOTION_DDOT = 0

CCSDS_OMM_VERS = 2.0
CREATION_DATE  = 
ORIGINATOR     = 

OBJECT_NAME    = STARLINK-36770
OBJECT_ID      = 2026-034W
CENTER_NAME    = EARTH
REF_FRAME      = TEME
TIME_SYSTEM    = UTC
MEAN_ELEMENT_THEORY = SGP/SGP4

EPOCH          = 2026-03-18T10:33:50.024448
MEAN_MOTION    = 15.81069045
ECCENTRICITY   = .0001568
INCLINATION    = 53.1598
RA_OF_ASC_NODE = 167.3154
ARG_OF_PERICENTER = 176.4662
MEAN_ANOMALY   = 183.6372

EPHEMERIS_TYPE = 0
CLASSIFICATION_TYPE = U
NORAD_CAT_ID   = 67870
ELEMENT_SET_NO = 999
REV_AT_EPOCH   = 532
BSTAR          = .14087E-2
MEAN_MOTION_DOT = .289467E-2
MEAN_MOTION_DDOT = 0

CCSDS_OMM_VERS = 2.0
CREATION_DATE  = 
ORIGINATOR     = 

OBJECT_NAME    = STARLINK-36769
OBJECT_ID      = 2026-034X
CENTER_NAME    = EARTH
REF_FRAME      = TEME
TIME_SYSTEM    = UTC
MEAN_ELEMENT_THEORY = SGP/SGP4

EPOCH          = 2026-03-17T16:22:28.713792
MEAN_MOTION    = 15.80998202
ECCENTRICITY   = .00016315
INCLINATION    = 53.1590
RA_OF_ASC_NODE = 171.1235
ARG_OF_PERICENTER = 344.5922
MEAN_ANOMALY   = 15.5051

EPHEMERIS_TYPE = 0
CLASSIFICATION_TYPE = U
NORAD_CAT_ID   = 67871
ELEMENT_SET_NO = 999
REV_AT_EPOCH   = 520
BSTAR          = .1277157E-2
MEAN_MOTION_DOT = .260625E-2
MEAN_MOTION_DDOT = 0

CCSDS_OMM_VERS = 2.0
CREATION_DATE  = 
ORIGINATOR     = 

OBJECT_NAME    = STARLINK-36786
OBJECT_ID      = 2026-034Y
CENTER_NAME    = EARTH
REF_FRAME      = TEME
TIME_SYSTEM    = UTC
MEAN_ELEMENT_THEORY = SGP/SGP4

EPOCH          = 2026-03-18T10:32:44.979072
MEAN_MOTION    = 15.81137698
ECCENTRICITY   = .0003775
INCLINATION    = 53.1600
RA_OF_ASC_NODE = 167.3104
ARG_OF_PERICENTER = 169.6731
MEAN_ANOMALY   = 190.4370

EPHEMERIS_TYPE = 0
CLASSIFICATION_TYPE = U
NORAD_CAT_ID   = 67872
ELEMENT_SET_NO = 999
REV_AT_EPOCH   = 532
BSTAR          = .20724E-2
MEAN_MOTION_DOT = .434906E-2
MEAN_MOTION_DDOT = 0

CCSDS_OMM_VERS = 2.0
CREATION_DATE  = 
ORIGINATOR     = 

OBJECT_NAME    = STARLINK-36783
OBJECT_ID      = 2026-034Z
CENTER_NAME    = EARTH
REF_FRAME      = TEME
TIME_SYSTEM    = UTC
MEAN_ELEMENT_THEORY = SGP/SGP4

EPOCH          = 2026-03-18T10:31:40.343232
MEAN_MOTION    = 15.80926303
ECCENTRICITY   = .0001187
INCLINATION    = 53.1601
RA_OF_ASC_NODE = 167.3050
ARG_OF_PERICENTER = 101.1084
MEAN_ANOMALY   = 259.0073

EPHEMERIS_TYPE = 0
CLASSIFICATION_TYPE = U
NORAD_CAT_ID   = 67873
ELEMENT_SET_NO = 999
REV_AT_EPOCH   = 532
BSTAR          = .80555E-3
MEAN_MOTION_DOT = .161697E-2
MEAN_MOTION_DDOT = 0

CCSDS_OMM_VERS = 2.0
CREATION_DATE  = 
ORIGINATOR     = 

OBJECT_NAME    = STARLINK-36730
OBJECT_ID      = 2026-034AA
CENTER_NAME    = EARTH
REF_FRAME      = TEME
TIME_SYSTEM    = UTC
MEAN_ELEMENT_THEORY = SGP/SGP4

EPOCH          = 2026-03-18T10:30:35.525952
MEAN_MOTION    = 15.80926153
ECCENTRICITY   = .000107
INCLINATION    = 53.1597
RA_OF_ASC_NODE = 167.3001
ARG_OF_PERICENTER = 99.6276
MEAN_ANOMALY   = 260.4868

EPHEMERIS_TYPE = 0
CLASSIFICATION_TYPE = U
NORAD_CAT_ID   = 67874
ELEMENT_SET_NO = 999
REV_AT_EPOCH   = 532
BSTAR          = .80004E-3
MEAN_MOTION_DOT = .160566E-2
MEAN_MOTION_DDOT = 0

CCSDS_OMM_VERS = 2.0
CREATION_DATE  = 
ORIGINATOR     = 

OBJECT_NAME    = STARLINK-36727
OBJECT_ID      = 2026-034AB
CENTER_NAME    = EARTH
REF_FRAME      = TEME
TIME_SYSTEM    = UTC
MEAN_ELEMENT_THEORY = SGP/SGP4

EPOCH          = 2026-03-18T10:29:30.885792
MEAN_MOTION    = 15.81186299
ECCENTRICITY   = .0000947
INCLINATION    = 53.1599
RA_OF_ASC_NODE = 167.2971
ARG_OF_PERICENTER = 181.3717
MEAN_ANOMALY   = 178.7303

EPHEMERIS_TYPE = 0
CLASSIFICATION_TYPE = U
NORAD_CAT_ID   = 67875
ELEMENT_SET_NO = 999
REV_AT_EPOCH   = 532
BSTAR          = .24661E-2
MEAN_MOTION_DOT = .524302E-2
MEAN_MOTION_DDOT = 0

CCSDS_OMM_VERS = 2.0
CREATION_DATE  = 
ORIGINATOR     = 

OBJECT_NAME    = STARLINK-36743
OBJECT_ID      = 2026-034AC
CENTER_NAME    = EARTH
REF_FRAME      = TEME
TIME_SYSTEM    = UTC
MEAN_ELEMENT_THEORY = SGP/SGP4

EPOCH          = 2026-03-18T10:28:26.012352
MEAN_MOTION    = 15.81160867
ECCENTRICITY   = .0000358
INCLINATION    = 53.1603
RA_OF_ASC_NODE = 167.2902
ARG_OF_PERICENTER = 189.6176
MEAN_ANOMALY   = 170.4840

EPHEMERIS_TYPE = 0
CLASSIFICATION_TYPE = U
NORAD_CAT_ID   = 67876
ELEMENT_SET_NO = 999
REV_AT_EPOCH   = 532
BSTAR          = .18555E-2
MEAN_MOTION_DOT = .387584E-2
MEAN_MOTION_DDOT = 0

CCSDS_OMM_VERS = 2.0
CREATION_DATE  = 
ORIGINATOR     = 

OBJECT_NAME    = STARLINK-36784
OBJECT_ID      = 2026-034AD
CENTER_NAME    = EARTH
REF_FRAME      = TEME
TIME_SYSTEM    = UTC
MEAN_ELEMENT_THEORY = SGP/SGP4

EPOCH          = 2026-03-18T10:27:27.504000
MEAN_MOTION    = 15.80962090
ECCENTRICITY   = .0003285
INCLINATION    = 53.1607
RA_OF_ASC_NODE = 167.2865
ARG_OF_PERICENTER = 254.0237
MEAN_ANOMALY   = 106.0424

EPHEMERIS_TYPE = 0
CLASSIFICATION_TYPE = U
NORAD_CAT_ID   = 67877
ELEMENT_SET_NO = 999
REV_AT_EPOCH   = 532
BSTAR          = .1659E-2
MEAN_MOTION_DOT = .341439E-2
MEAN_MOTION_DDOT = 0

CCSDS_OMM_VERS = 2.0
CREATION_DATE  = 
ORIGINATOR     = 

OBJECT_NAME    = STARLINK-36689
OBJECT_ID      = 2026-034AE
CENTER_NAME    = EARTH
REF_FRAME      = TEME
TIME_SYSTEM    = UTC
MEAN_ELEMENT_THEORY = SGP/SGP4

EPOCH          = 2026-03-18T10:26:16.219680
MEAN_MOTION    = 15.81076573
ECCENTRICITY   = .000324
INCLINATION    = 53.1595
RA_OF_ASC_NODE = 167.2801
ARG_OF_PERICENTER = 168.6977
MEAN_ANOMALY   = 191.4119

EPHEMERIS_TYPE = 0
CLASSIFICATION_TYPE = U
NORAD_CAT_ID   = 67878
ELEMENT_SET_NO = 999
REV_AT_EPOCH   = 532
BSTAR          = .16031E-2
MEAN_MOTION_DOT = .331265E-2
MEAN_MOTION_DDOT = 0

CCSDS_OMM_VERS = 2.0
CREATION_DATE  = 
ORIGINATOR     = 

OBJECT_NAME    = STARLINK-36818
OBJECT_ID      = 2026-035A
CENTER_NAME    = EARTH
REF_FRAME      = TEME
TIME_SYSTEM    = UTC
MEAN_ELEMENT_THEORY = SGP/SGP4

EPOCH          = 2026-03-18T12:41:31.445952
MEAN_MOTION    = 15.75252497
ECCENTRICITY   = .0002322
INCLINATION    = 97.2881
RA_OF_ASC_NODE = 10.3430
ARG_OF_PERICENTER = 83.3590
MEAN_ANOMALY   = 276.7940

EPHEMERIS_TYPE = 0
CLASSIFICATION_TYPE = U
NORAD_CAT_ID   = 67879
ELEMENT_SET_NO = 999
REV_AT_EPOCH   = 523
BSTAR          = .14596E-2
MEAN_MOTION_DOT = .224003E-2
MEAN_MOTION_DDOT = 0

CCSDS_OMM_VERS = 2.0
CREATION_DATE  = 
ORIGINATOR     = 

OBJECT_NAME    = STARLINK-36821
OBJECT_ID      = 2026-035B
CENTER_NAME    = EARTH
REF_FRAME      = TEME
TIME_SYSTEM    = UTC
MEAN_ELEMENT_THEORY = SGP/SGP4

EPOCH          = 2026-03-18T12:00:02.998944
MEAN_MOTION    = 15.75249202
ECCENTRICITY   = .0001851
INCLINATION    = 97.2865
RA_OF_ASC_NODE = 10.3218
ARG_OF_PERICENTER = 104.4613
MEAN_ANOMALY   = 108.4692

EPHEMERIS_TYPE = 0
CLASSIFICATION_TYPE = U
NORAD_CAT_ID   = 67880
ELEMENT_SET_NO = 999
REV_AT_EPOCH   = 517
BSTAR          = -.95845E-3
MEAN_MOTION_DOT = -.141127E-2
MEAN_MOTION_DDOT = 0

