STARLINK-36779          
1 67869U 26034V   26077.25200509  .00237893  00000+0  11728-2 0  9998
2 67869  53.1588 168.2761 0001328  72.8495 287.2673 15.80930795  5296
STARLINK-36770          
1 67870U 26034W   26077.44016232  .00289467  00000+0  14087-2 0  9994
2 67870  53.1598 167.3154 0001568 176.4662 183.6372 15.81069045  5329
STARLINK-36769          
1 67871U 26034X   26076.68227678  .00260625  00000+0  12772-2 0  9992
2 67871  53.1590 171.1235 0001631 344.5922  15.5051 15.80998202  5202
STARLINK-36786          
1 67872U 26034Y   26077.43940948  .00434906  00000+0  20724-2 0  9990
2 67872  53.1600 167.3104 0003775 169.6731 190.4370 15.81137698  5327
STARLINK-36783          
1 67873U 26034Z   26077.43866138  .00161697  00000+0  80555-3 0  9992
2 67873  53.1601 167.3050 0001187 101.1084 259.0073 15.80926303  5326
STARLINK-36730          
1 67874U 26034AA  26077.43791118  .00160566  00000+0  80004-3 0  9991
2 67874  53.1597 167.3001 0001070  99.6276 260.4868 15.80926153  5323
STARLINK-36727          
1 67875U 26034AB  26077.43716303  .00524302  00000+0  24661-2 0  9993
2 67875  53.1599 167.2971 0000947 181.3717 178.7303 15.81186299  5327
STARLINK-36743          
1 67876U 26034AC  26077.43641218  .00387584  00000+0  18555-2 0  9990
2 67876  53.1603 167.2902 0000358 189.6176 170.4840 15.81160867  5322
STARLINK-36784          
1 67877U 26034AD  26077.43573500  .00341439  00000+0  16590-2 0  9995
2 67877  53.1607 167.2865 0003285 254.0237 106.0424 15.80962090  5322
STARLINK-36689          
1 67878U 26034AE  26077.43490995  .00331265  00000+0  16031-2 0  9998
2 67878  53.1595 167.2801 0003240 168.6977 191.4119 15.81076573  5323
STARLINK-36818          
1 67879U 26035A   26077.52883618  .00224003  00000+0  14596-2 0  9993
2 67879  97.2881  10.3430 0002322  83.3590 276.7940 15.75252497  5234
STARLINK-36821          
1 67880U 26035B   26077.50003471 -.00141127  00000+0 -95845-3 0  9998
2 67880  97.2865  10.3218 0001851 104.4613 108.4692 15.75249202  5177
